[
  {
    "isoName": "ar",
    "nativeName": "العربية"
  },
  {
    "isoName": "az-latn",
    "nativeName": "Azerbaijani (latin)"
  },
  {
    "isoName": "bg",
    "nativeName": "български език"
  },
  {
    "isoName": "ca",
    "nativeName": "Català"
  },
  {
    "isoName": "cs",
    "nativeName": "Čeština"
  },
  {
    "isoName": "da",
    "nativeName": "Dansk"
  },
  {
    "isoName": "de",
    "nativeName": "Deutsch"
  },
  {
    "isoName": "el",
    "nativeName": "ελληνικά"
  },
  {
    "isoName": "en-gb",
    "nativeName": "English (UK)"
  },
  {
    "isoName": "en-us",
    "nativeName": "English (US)"
  },
  {
    "isoName": "eo",
    "nativeName": "Esperanto"
  },
  {
    "isoName": "es",
    "nativeName": "Español"
  },
  {
    "isoName": "et",
    "nativeName": "Eesti"
  },
  {
    "isoName": "fa-ir",
    "nativeName": "فارسی"
  },
  {
    "isoName": "fa",
    "nativeName": "فارسی"
  },
  {
    "isoName": "fi",
    "nativeName": "Suomi"
  },
  {
    "isoName": "fr",
    "nativeName": "Français"
  },
  {
    "isoName": "gn",
    "nativeName": "Avañe'ẽ"
  },
  {
    "isoName": "he",
    "nativeName": "עברית"
  },
  {
    "isoName": "hr",
    "nativeName": "Hrvatski jezik"
  },
  {
    "isoName": "hu",
    "nativeName": "Magyar"
  },
  {
    "isoName": "id",
    "nativeName": "Bahasa Indonesia"
  },
  {
    "isoName": "is",
    "nativeName": "Íslenska"
  },
  {
    "isoName": "it",
    "nativeName": "Italiano"
  },
  {
    "isoName": "ja",
    "nativeName": "日本語 (にほんご)"
  },
  {
    "isoName": "km",
    "nativeName": "ខ្មែរ"
  },
  {
    "isoName": "ko-kr",
    "nativeName": "한국어"
  },
  {
    "isoName": "kur-ckb",
    "nativeName": "کوردی سۆرانی"
  },
  {
    "isoName": "lu",
    "nativeName": "Kiluba"
  },
  {
    "isoName": "lv",
    "nativeName": "Latviešu valoda"
  },
  {
    "isoName": "ml",
    "nativeName": "മലയാളം"
  },
  {
    "isoName": "ms",
    "nativeName": "Bahasa Melayu"
  },
  {
    "isoName": "nb-no",
    "nativeName": "Norsk"
  },
  {
    "isoName": "nl",
    "nativeName": "Nederlands"
  },
  {
    "isoName": "pl",
    "nativeName": "Polski"
  },
  {
    "isoName": "pt-br",
    "nativeName": "Português (BR)"
  },
  {
    "isoName": "pt",
    "nativeName": "Português"
  },
  {
    "isoName": "ro",
    "nativeName": "Română"
  },
  {
    "isoName": "ru",
    "nativeName": "русский"
  },
  {
    "isoName": "sk",
    "nativeName": "Slovenčina"
  },
  {
    "isoName": "sl",
    "nativeName": "Slovenski Jezik"
  },
  {
    "isoName": "sr",
    "nativeName": "srpski jezik"
  },
  {
    "isoName": "sv",
    "nativeName": "Svenska"
  },
  {
    "isoName": "ta",
    "nativeName": "தமிழ்"
  },
  {
    "isoName": "th",
    "nativeName": "ไทย"
  },
  {
    "isoName": "tr",
    "nativeName": "Türkçe"
  },
  {
    "isoName": "ug",
    "nativeName": "ئۇيغۇرچە"
  },
  {
    "isoName": "uk",
    "nativeName": "Українська"
  },
  {
    "isoName": "vi",
    "nativeName": "Tiếng Việt"
  },
  {
    "isoName": "zh-hans",
    "nativeName": "中文(简体)"
  },
  {
    "isoName": "zh-hant",
    "nativeName": "中文(繁體)"
  }
]